STARLINK-31021          
1 58518U 23191L   26068.44888954  .00000649  00000+0  33885-4 0  9994
2 58518  43.0000 104.8427 0001407 267.8000  92.2690 15.26741054125435
FOSSASAT-2E20 (TAT-O)   
1 63003U 25009DN  26068.70855016  .00016337  00000+0  61863-3 0  9998
2 63003  97.3231 146.2859 0002189 347.5575  12.5610 15.26991080121314
